{
    "links": {
        "self": "http://www.neowsapp.com/rest/v1/neo/3799244?api_key=iIulBulltgU6a56xZRHN4H3l9WmuAYTsLGpBGhQ2"
    },
    "id": "3799244",
    "neo_reference_id": "3799244",
    "name": "(2018 CV)",
    "designation": "2018 CV",
    "nasa_jpl_url": "http://ssd.jpl.nasa.gov/sbdb.cgi?sstr=3799244",
    "absolute_magnitude_h": 24.3,
    "estimated_diameter": {
        "kilometers": {
            "estimated_diameter_min": 0.0366906138,
            "estimated_diameter_max": 0.0820427065
        },
        "meters": {
            "estimated_diameter_min": 36.6906137531,
            "estimated_diameter_max": 82.0427064882
        },
        "miles": {
            "estimated_diameter_min": 0.0227984834,
            "estimated_diameter_max": 0.0509789586
        },
        "feet": {
            "estimated_diameter_min": 120.3760332259,
            "estimated_diameter_max": 269.1689931548
        }
    },
    "is_potentially_hazardous_asteroid": false,
    "close_approach_data": [
        {
            "close_approach_date": "2018-02-09",
            "close_approach_date_full": "2018-Feb-09 09:06",
            "epoch_date_close_approach": 1518167160000,
            "relative_velocity": {
                "kilometers_per_second": "16.0271978293",
                "kilometers_per_hour": "57697.9121854631",
                "miles_per_hour": "35851.2388243507"
            },
            "miss_distance": {
                "astronomical": "0.1151619419",
                "lunar": "44.7979953991",
                "kilometers": "17227981.213303753",
                "miles": "10704971.1298396714"
            },
            "orbiting_body": "Earth"
        },
        {
            "close_approach_date": "2018-07-17",
            "close_approach_date_full": "2018-Jul-17 21:46",
            "epoch_date_close_approach": 1531863960000,
            "relative_velocity": {
                "kilometers_per_second": "16.4010162329",
                "kilometers_per_hour": "59043.6584382798",
                "miles_per_hour": "36687.4332112745"
            },
            "miss_distance": {
                "astronomical": "0.4372912697",
                "lunar": "170.1063039133",
                "kilometers": "65417842.516715539",
                "miles": "40648762.4317268782"
            },
            "orbiting_body": "Earth"
        }
    ],
    "orbital_data": {
        "orbit_id": "2",
        "orbit_determination_date": "2018-02-09 06:28:07",
        "first_observation_date": "2018-02-04",
        "last_observation_date": "2018-02-09",
        "data_arc_in_days": 5,
        "observations_used": 42,
        "orbit_uncertainty": "8",
        "minimum_orbit_intersection": ".114092",
        "jupiter_tisserand_invariant": "4.891",
        "epoch_osculation": "2458154.5",
        "eccentricity": ".1890654726494949",
        "semi_major_axis": "1.286010266954988",
        "inclination": "30.02780360870773",
        "ascending_node_longitude": "137.2034116416998",
        "orbital_period": "532.6783926591481",
        "perihelion_distance": "1.04287012800104",
        "perihelion_argument": "49.56071449299165",
        "aphelion_distance": "1.529150405908936",
        "perihelion_time": "2458207.076095325813",
        "mean_anomaly": "324.4675012575477",
        "mean_motion": ".6758299284543308",
        "equinox": "J2000",
        "orbit_class": {
            "orbit_class_type": "AMO",
            "orbit_class_description": "Near-Earth asteroid orbits similar to that of 1221 Amor",
            "orbit_class_range": "1.017 AU < q (perihelion) < 1.3 AU"
        }
    },
    "is_sentry_object": false
}